{
    "links": {
        "self": "http://www.neowsapp.com/rest/v1/neo/3837803?api_key=iIulBulltgU6a56xZRHN4H3l9WmuAYTsLGpBGhQ2"
    },
    "id": "3837803",
    "neo_reference_id": "3837803",
    "name": "(2019 AQ9)",
    "designation": "2019 AQ9",
    "nasa_jpl_url": "http://ssd.jpl.nasa.gov/sbdb.cgi?sstr=3837803",
    "absolute_magnitude_h": 22.3,
    "estimated_diameter": {
        "kilometers": {
            "estimated_diameter_min": 0.0921626549,
            "estimated_diameter_max": 0.2060819612
        },
        "meters": {
            "estimated_diameter_min": 92.1626548503,
            "estimated_diameter_max": 206.0819612321
        },
        "miles": {
            "estimated_diameter_min": 0.057267201,
            "estimated_diameter_max": 0.1280533543
        },
        "feet": {
            "estimated_diameter_min": 302.370924539,
            "estimated_diameter_max": 676.1219416887
        }
    },
    "is_potentially_hazardous_asteroid": false,
    "close_approach_data": [
        {
            "close_approach_date": "2019-02-14",
            "close_approach_date_full": "2019-Feb-14 14:41",
            "epoch_date_close_approach": 1550155260000,
            "relative_velocity": {
                "kilometers_per_second": "13.9404414669",
                "kilometers_per_hour": "50185.5892807136",
                "miles_per_hour": "31183.3735172301"
            },
            "miss_distance": {
                "astronomical": "0.1031719207",
                "lunar": "40.1338771523",
                "kilometers": "15434299.580528909",
                "miles": "9590429.0452365842"
            },
            "orbiting_body": "Earth"
        },
        {
            "close_approach_date": "2021-07-26",
            "close_approach_date_full": "2021-Jul-26 16:43",
            "epoch_date_close_approach": 1627317780000,
            "relative_velocity": {
                "kilometers_per_second": "20.3933093921",
                "kilometers_per_hour": "73415.9138114009",
                "miles_per_hour": "45617.7937790896"
            },
            "miss_distance": {
                "astronomical": "0.134139519",
                "lunar": "52.180272891",
                "kilometers": "20066986.32522453",
                "miles": "12469047.105097314"
            },
            "orbiting_body": "Earth"
        }
    ],
    "orbital_data": {
        "orbit_id": "11",
        "orbit_determination_date": "2019-02-14 07:04:05",
        "first_observation_date": "2019-01-08",
        "last_observation_date": "2019-02-12",
        "data_arc_in_days": 35,
        "observations_used": 57,
        "orbit_uncertainty": "7",
        "minimum_orbit_intersection": ".00651616",
        "jupiter_tisserand_invariant": "4.017",
        "epoch_osculation": "2459000.5",
        "eccentricity": ".5766640089824673",
        "semi_major_axis": "1.681319619053738",
        "inclination": "7.021520527481813",
        "ascending_node_longitude": "292.8873692076661",
        "orbital_period": "796.2947418072924",
        "perihelion_distance": ".7117631071493348",
        "perihelion_argument": "283.5628031499924",
        "aphelion_distance": "2.650876130958141",
        "perihelion_time": "2459371.976470105035",
        "mean_anomaly": "192.0577517135277",
        "mean_motion": ".4520939058104718",
        "equinox": "J2000",
        "orbit_class": {
            "orbit_class_type": "APO",
            "orbit_class_description": "Near-Earth asteroid orbits which cross the Earth’s orbit similar to that of 1862 Apollo",
            "orbit_class_range": "a (semi-major axis) > 1.0 AU; q (perihelion) < 1.017 AU"
        }
    },
    "is_sentry_object": false
}